[{"OBJECT_NAME":"STARLINK-32106","OBJECT_ID":"2024-086J","EPOCH":"2026-03-09T09:10:45.482304","MEAN_MOTION":15.27572207,"ECCENTRICITY":0.00031137,"INCLINATION":43.0082,"RA_OF_ASC_NODE":53.9773,"ARG_OF_PERICENTER":282.9048,"MEAN_ANOMALY":77.1456,"EPHEMERIS_TYPE":0,"CLASSIFICATION_TYPE":"U","NORAD_CAT_ID":59690,"ELEMENT_SET_NO":999,"REV_AT_EPOCH":10415,"BSTAR":-2.1800604e-5,"MEAN_MOTION_DOT":-8.63e-6,"MEAN_MOTION_DDOT":0},{"OBJECT_NAME":"CZ-4B DEB","OBJECT_ID":"2006-015E","EPOCH":"2026-03-09T20:34:53.082912","MEAN_MOTION":15.19885806,"ECCENTRICITY":0.00461993,"INCLINATION":98.0565,"RA_OF_ASC_NODE":201.7753,"ARG_OF_PERICENTER":62.4887,"MEAN_ANOMALY":298.1031,"EPHEMERIS_TYPE":0,"CLASSIFICATION_TYPE":"U","NORAD_CAT_ID":29538,"ELEMENT_SET_NO":999,"REV_AT_EPOCH":5389,"BSTAR":0.0022587151,"MEAN_MOTION_DOT":0.00050103,"MEAN_MOTION_DDOT":0}]
